#dP2022  9 10  6  0  0.00000000      96 __u+U ITR00 EXT  IAC
## 2226 540000.00000000   900.00000000 59832 0.2500000000000
+  115   C06C07C08C09C10C11C12C13C14C16C19C20C21C22C23C24C25
+        C26C27C28C29C30C32C33C34C35C36C37C38C39C40C41C42C43
+        C44C45C46E01E02E03E04E05E07E08E09E10E11E12E13E14E15
+        E18E19E21E24E25E26E27E30E31E33E34E36G01G02G03G04G05
+        G06G07G08G09G10G11G12G13G14G15G16G17G18G19G20G21G22
+        G24G25G27G28G29G30G31G32J02J03R01R02R03R04R05R07R08
+        R09R11R12R13R14R15R17R18R19R20R21R24R25  0  0  0  0
++         9  9 10  9  8 10  9 10  9  8  6  8 10  7  8  9  9
++         9  9 11  9  9 10  8  9 10  9  9 10  9  9  9  8  9
++         9  9  9  8  8  8  8  9  9  9  8 10  8  9  7  8  6
++         7  9  8  9  8  8  8  7  8  9  9  7  8  8  6 10  8
++         7  9  7  8  7  8  7  7  7  6  9  7  7  7  7  7  9
++         7  7  6  8  7  7  8  8  9  8  9  7  9  9  9  6  9
++         7  8  8  7  9  8  8  9  9  9  8  8  9  0  0  0  0
%c M  cc GPS ccc cccc cccc cccc cccc ccccc ccccc ccccc ccccc
%c cc cc ccc ccc cccc cccc cccc cccc ccccc ccccc ccccc ccccc
%f  0.0000000  0.000000000  0.00000000000  0.000000000000000
%f  0.0000000  0.000000000  0.00000000000  0.000000000000000
%i    0    0    0    0      0      0      0      0         0
%i    0    0    0    0      0      0      0      0         0
/* IAC                                ULTRA-RAPID PREDICTION
/* S/V CLOCKS ARE ALIGNED TO GNSS TIME                      
/* G:C1WC2W R:C1PC2P E:C1XC5X C:C2IC6I J:C1CC2S             
/* PCV:IGS14_2218 OL/AL:FES2004  NONE     YN ORB:CoN CLK:CoN
*  2022 09 10 12 15  0.00000000
PC06 -12179.692303  23258.184848  32963.031137    806.798101
PC07 -14900.965480  39316.930938  -4132.381088   -122.024571
PC08    611.719165  32150.595178 -27175.147696    467.352422
PC09  -1541.741430  24593.842729  34591.141742   -867.998050
PC10  -9423.549220  40031.899586 -10141.692284     98.448520
PC11 -27852.017142   1804.225639   -937.491516   -417.317556
PC12 -21387.069588  -9076.571504  15513.254229   -523.099719
PC13   6194.574175  35645.035391 -21293.634603     76.688990
PC14 -18534.836382   7785.402566 -19366.215141    643.469241
PC16 -16247.640167  21950.657758  32240.077533    138.643621
PC19  17959.505957 -17059.076107  12852.312654   -623.251257
PC20  16592.693532    926.087818  22418.163955    531.907455
PC21  -5112.925921 -19625.020915 -19153.130525   -366.450235
PC22   9015.781907 -25987.782540  -4634.612977   -559.881426
PC23   -865.028252  21538.743452  17732.270737    -14.571557
PC24 -20604.120763 -13130.481515  13504.148880    -76.233918
PC25 -14618.512745   7419.742671  22580.181663   -680.268141
PC26 -15061.372377 -23445.097281  -1826.842827     -5.534793
PC27  13455.842412  13394.122097 -20474.308486     18.735879
PC28  -7007.655776  15679.944848 -21994.909127     11.350816
PC29  24168.362548  -9511.665595  10192.668097     11.640299
PC30  26613.210993   2898.391944  -7912.576128    502.832509
PC32   5202.005816  19677.890392  19101.719907   -810.355014
PC33 -17892.801481  17102.254180 -12905.614857   -627.357185
PC34 -26952.032573  -2201.952816   6850.200996   -316.704792
PC35   8007.227429 -15851.707653  21522.920020    452.452489
PC36  15111.425224  -6508.653820 -22508.804778   -140.211936
PC37  13701.663909  24106.955924   3051.399648   -151.337994
PC38  -6647.181312  28046.200413 -30695.283992     23.265911
PC39 -21290.051348  21310.864722  29441.150751     -0.411061
PC40 -21730.897148  36228.622022  -1595.209718     -3.894542
PC41  -9249.772722  26005.903766   4154.883344    -65.665935
PC42 -16209.808541  -2134.397211 -22581.008158   -269.996605
PC43 -24601.143604   9089.319900  -9523.051694     13.468484
PC44 -13711.928686 -13092.609439  20457.542562     45.625951
PC45    451.468619 -21686.881032 -17560.278970    857.364191
PC46  20560.869128  11589.236840 -14851.366707   -533.751718
PE01   8030.843702  26943.900756  -9243.958462   -525.344965
PE02  -8150.078824 -26859.517091   9425.344968    323.832876
PE03  -7445.422952 -15458.682198 -24125.774054   -598.435906
PE04  22946.478503    415.662155  18695.623893  -1112.437902
PE05  12796.899728 -21747.144423 -15476.148936   -145.342381
PE07 -25268.620072  15293.938340  -2023.164003   -704.197225
PE08 -22942.814281   -168.550592 -18711.936816   -596.382237
PE09  25238.178671 -15304.831127   2130.167952   -653.609555
PE10  26483.861595   3608.962886  12690.244528   -475.864144
PE11  21010.828864  -4495.933078  20346.516444   2280.680322
PE12  27380.832661  10669.192372   3575.230754   -161.647714
PE13 -21536.559548   3892.927169 -19933.426850    430.548181
PE14  -6006.977825  23037.412394 -21988.573816  -1724.245911
PE15 -27377.290021 -10742.185801  -3383.239550    721.312529
PE18  -1816.584345 -15529.309469  17908.652241   -992.726588
PE19   4682.530579  16852.198893  23881.659194  -4569.413195
PE21  -3744.933993  28195.076504   8203.102741   -756.912651
PE24  14733.894635 -12303.735320 -22542.467927   -829.115933
PE25   3918.446247 -28095.182555  -8447.086516   -587.276594
PE26  -2258.811974  16620.024066 -24389.307009  -1596.702059
PE27 -14293.240554  13432.676079  22176.252573   -388.768549
PE30 -16192.560947 -10093.918921  22631.333424   -825.360728
PE31  16318.388336   9080.918155 -22950.169905   -503.270644
PE33  17029.140949  18953.042316 -15064.264560   -453.600548
PE34 -17242.640048 -18895.297361  14899.826665     -3.804944
PE36   3113.336442 -16109.837844  24634.219003   -429.415091
PG01  22447.724778  14540.815772   -530.792700    286.385770
PG02 -17719.434933 -17058.183959  10466.606827   -646.508125
PG03  12034.614648  14955.778235  18275.256587   -348.600992
PG04  18255.101626   5332.310631  18585.492023   -120.788949
PG05  -7040.339714 -23801.525970  -9448.312445    -96.146069
PG06   6871.429802 -12961.574434  22202.845952    456.101784
PG07  22980.298249   3319.489501 -12911.275292    308.659273
PG08  10312.437054  11487.193287 -21679.296768    -84.042118
PG09  23862.465659  -5139.159575  10444.784274   -297.834457
PG10 -11455.750773  17219.573041 -16336.297030     -2.675531
PG11  -4600.442861 -18624.967817  18381.240079    -15.538049
PG12 -10548.921435 -16695.680653  17545.408298   -276.109046
PG13   -513.692016 -15653.358905 -21592.909946    384.812088
PG14  13196.110811 -15317.375561 -17160.231832   -104.513308
PG15 -11988.487781 -11003.962771 -21451.472361    -30.164417
PG16      2.970450  26005.825947  -4280.425765   -523.691708
PG17  22557.914721 -13593.176920   4098.546443    657.713993
PG18 -22199.692353  -2410.413845 -14492.962119     53.245062
PG19  16627.693263 -16082.577520  12581.258170    208.825429
PG20   -341.952876 -26302.790934   4489.635080    487.579810
PG21  19438.462071  16312.846782  -8383.421778    159.607646
PG22 -13514.982580  17454.546610  15060.194744    325.331531
PG24 -21637.297942 -15056.594487  -5067.948608    140.284966
PG25 -15035.066553  -3589.173178  21331.652241    370.493474
PG27  -2695.732123  17191.085569 -20163.734376    212.924633
PG28   9340.328429 -22863.581892  -9573.910320    338.956037
PG29 -23997.409108   2642.624754  11120.178890   -550.374539
PG30  16449.629623  -6789.709231 -19697.353830   -536.853544
PG31  -6219.996409  14068.684948  21480.931299   -192.846400
PG32 -20192.718501  16056.772463   6015.145016   -229.107403
PJ02 -27609.067630  25156.663604  24583.634801     -4.749098
PJ03 -31572.463800  16609.575649 -17891.906578     -1.455420
PR01  16515.909563  -9380.630558  17016.780358     14.526334
PR02  15065.332173 -20618.937192   -601.005481    -22.629899
PR03   4222.027926 -18953.132070 -16536.964829     63.451309
PR04  -8511.406257  -6622.786318 -23093.589949    157.068181
PR05 -16717.607682   9157.476181 -16930.156696     99.396781
PR07  -3556.858351  18523.675767  17178.229547     40.747824
PR08   8777.188014   6514.063016  23098.542399    -67.117081
PR09  -3393.651412  15853.347874  19742.115157     75.943290
PR11  13956.994189  18655.733743 -10388.635383     27.871614
PR12  12416.101475   1753.795620 -22179.141600     21.087080
PR13   4219.698896 -14484.480026 -20575.802020    -26.648490
PR14  -7485.670535 -23630.549892  -5959.928220     24.281489
PR15 -13982.224129 -18103.826291  11308.277495     93.787688
PR17  -5332.627126 -10879.827723  22460.515335    559.921303
PR18 -20539.126256  -8268.201651  12643.222271     41.731990
PR19 -25240.533784  -2663.547553  -2623.316724   -203.191540
PR20 -14535.694274   6661.639210 -19857.853561    -78.119975
PR21   6904.706468  10822.515644 -22037.163954   -332.586282
PR24  13769.668758  -7720.123896  20042.407842    113.788038
PR25  20672.724054   9058.137256 -11867.728377     13.015029
EOF
